{
"type": "FeatureCollection",
"name": "mekong",
"crs": { "type": "name", "properties": { "name": "urn:ogc:def:crs:EPSG::3857" } },
"features": [
{ "type": "Feature", "properties": { }, "geometry": { "type": "Polygon", "coordinates": [ [ [ 11728908.420307077467442, 1004640.536821537301876 ], [ 11728593.163509150967002, 1000914.172436606138945 ], [ 11732969.13269223459065, 999528.747843765770085 ], [ 11734421.518088616430759, 1005471.732038763468154 ], [ 11728908.420307077467442, 1004640.536821537301876 ] ] ] } }
]
}
