{
"type": "FeatureCollection",
"name": "north_sea",
"crs": { "type": "name", "properties": { "name": "urn:ogc:def:crs:EPSG::3857" } },
"features": [
{ "type": "Feature", "properties": { }, "geometry": { "type": "Polygon", "coordinates": [ [ [ 80717.540135221061064, 6611497.121708713471889 ], [ 282511.279153782990761, 6540563.642397833056748 ], [ 472075.124955323582981, 6765594.292231114581227 ], [ 540562.660554032307118, 6907461.4144541118294 ], [ 550346.641919343965128, 6995516.894911807030439 ], [ 714227.63404149597045, 7071342.360802665352821 ], [ 765593.230080782086588, 7081126.305937571451068 ], [ 342437.900632525968831, 7408888.270664162933826 ], [ 80717.540135221061064, 6611497.121708713471889 ] ] ] } }
]
}
