{
"type": "FeatureCollection",
"name": "terschelling",
"crs": { "type": "name", "properties": { "name": "urn:ogc:def:crs:EPSG::3857" } },
"features": [
{ "type": "Feature", "properties": { }, "geometry": { "type": "Polygon", "coordinates": [ [ [ 601177.236485877772793, 7067596.89517676550895 ], [ 570525.971293403883465, 7054296.918133091181517 ], [ 567544.946649450808764, 7044436.52992754150182 ], [ 573583.472427531844005, 7041226.173475762829185 ], [ 618375.541215984500013, 7059571.132560300640762 ], [ 621203.724199078511447, 7065533.063005371950567 ], [ 619292.813820121111348, 7070501.487370686605573 ], [ 601177.236485877772793, 7067596.89517676550895 ] ] ] } }
]
}
